{"type": "FeatureCollection", "features": [ {"type": "Feature", "properties": {"norad_id": 39634, "name": "SENTINEL-1A", "group": "resource", "lat": 40.92091590328684, "lon": -7.427225195593138, "alt_km": 691.8317306105664, "timestamp": "2025-12-20T14:38:01.615526+00:00", "meta": {"OBJECT_NAME": "SENTINEL-1A", "OBJECT_ID": "2014-016A", "EPOCH": "2025-12-20T06:12:57.621600", "MEAN_MOTION": 14.59202385, "ECCENTRICITY": 0.00012809, "INCLINATION": 98.1795, "RA_OF_ASC_NODE": 359.3897, "ARG_OF_PERICENTER": 84.9568, "MEAN_ANOMALY": 275.1778, "EPHEMERIS_TYPE": 0, "CLASSIFICATION_TYPE": "U", "NORAD_CAT_ID": 39634, "ELEMENT_SET_NO": 999, "REV_AT_EPOCH": 62392, "BSTAR": 5.0027989e-05, "MEAN_MOTION_DOT": 1.9e-06, "MEAN_MOTION_DDOT": 0}, "tle": {"line1": "1 39634U 14016A   25354.25900025  .00000190  00000+0  50028-4 0  9997", "line2": "2 39634  98.1795 359.3897 0001280  84.9568 275.1778 14.59202385623929"}}, "geometry": {"type": "Point", "coordinates": [-7.427225195593138, 40.92091590328684]}}, {"type": "Feature", "properties": {"norad_id": 39731, "name": "KAZEOSAT 1", "group": "resource", "lat": -69.64718903308835, "lon": -136.9620905853144, "alt_km": 759.696307411109, "timestamp": "2025-12-20T14:38:01.615536+00:00", "meta": {"OBJECT_NAME": "KAZEOSAT 1", "OBJECT_ID": "2014-024A", "EPOCH": "2025-12-20T06:48:39.115584", "MEAN_MOTION": 14.42066732, "ECCENTRICITY": 0.00011794, "INCLINATION": 98.3432, "RA_OF_ASC_NODE": 66.0224, "ARG_OF_PERICENTER": 98.3006, "MEAN_ANOMALY": 261.8317, "EPHEMERIS_TYPE": 0, "CLASSIFICATION_TYPE": "U", "NORAD_CAT_ID": 39731, "ELEMENT_SET_NO": 999, "REV_AT_EPOCH": 61277, "BSTAR": 8.0718391e-05, "MEAN_MOTION_DOT": 2.22e-06, "MEAN_MOTION_DDOT": 0}, "tle": {"line1": "1 39731U 14024A   25354.28378606  .00000222  00000+0  80718-4 0  9996", "line2": "2 39731  98.3432  66.0224 0001179  98.3006 261.8317 14.42066732612774"}}, "geometry": {"type": "Point", "coordinates": [-136.9620905853144, -69.64718903308835]}}, {"type": "Feature", "properties": {"norad_id": 39766, "name": "ALOS-2", "group": "resource", "lat": 65.3149558756097, "lon": -73.01826920419153, "alt_km": 623.6615436814973, "timestamp": "2025-12-20T14:38:01.615547+00:00", "meta": {"OBJECT_NAME": "ALOS-2", "OBJECT_ID": "2014-029A", "EPOCH": "2025-12-20T06:00:25.684128", "MEAN_MOTION": 14.79471424, "ECCENTRICITY": 0.00014159, "INCLINATION": 97.9231, "RA_OF_ASC_NODE": 88.9899, "ARG_OF_PERICENTER": 99.7764, "MEAN_ANOMALY": 260.3607, "EPHEMERIS_TYPE": 0, "CLASSIFICATION_TYPE": "U", "NORAD_CAT_ID": 39766, "ELEMENT_SET_NO": 999, "REV_AT_EPOCH": 62512, "BSTAR": 0.00029650605, "MEAN_MOTION_DOT": 2.164e-05, "MEAN_MOTION_DDOT": 0}, "tle": {"line1": "1 39766U 14029A   25354.25029727  .00002164  00000+0  29651-3 0  9998", "line2": "2 39766  97.9231  88.9899 0001415  99.7764 260.3607 14.79471424625121"}}, "geometry": {"type": "Point", "coordinates": [-73.01826920419153, 65.3149558756097]}}, {"type": "Feature", "properties": {"norad_id": 40010, "name": "KAZEOSAT 2", "group": "resource", "lat": -4.8232288922490385, "lon": 17.876066774979524, "alt_km": 610.9351335790789, "timestamp": "2025-12-20T14:38:01.615557+00:00", "meta": {"OBJECT_NAME": "KAZEOSAT 2", "OBJECT_ID": "2014-033A", "EPOCH": "2025-12-20T05:43:11.076096", "MEAN_MOTION": 14.85177187, "ECCENTRICITY": 0.00082475, "INCLINATION": 97.5498, "RA_OF_ASC_NODE": 198.1652, "ARG_OF_PERICENTER": 180.4566, "MEAN_ANOMALY": 179.6644, "EPHEMERIS_TYPE": 0, "CLASSIFICATION_TYPE": "U", "NORAD_CAT_ID": 40010, "ELEMENT_SET_NO": 999, "REV_AT_EPOCH": 62239, "BSTAR": 3.63635e-06, "MEAN_MOTION_DOT": -1.9e-07, "MEAN_MOTION_DDOT": 0}, "tle": {"line1": "1 40010U 14033A   25354.23832264 -.00000019  00000+0  36363-5 0  9991", "line2": "2 40010  97.5498 198.1652 0008247 180.4566 179.6644 14.85177187622390"}}, "geometry": {"type": "Point", "coordinates": [17.876066774979524, -4.8232288922490385]}}, {"type": "Feature", "properties": {"norad_id": 40011, "name": "HODOYOSHI-4", "group": "resource", "lat": -21.674189237295305, "lon": -173.8777370001131, "alt_km": 627.0653979543986, "timestamp": "2025-12-20T14:38:01.615567+00:00", "meta": {"OBJECT_NAME": "HODOYOSHI-4", "OBJECT_ID": "2014-033B", "EPOCH": "2025-12-20T06:39:36.510624", "MEAN_MOTION": 14.87505295, "ECCENTRICITY": 0.00237709, "INCLINATION": 97.5405, "RA_OF_ASC_NODE": 182.7889, "ARG_OF_PERICENTER": 175.3417, "MEAN_ANOMALY": 184.8026, "EPHEMERIS_TYPE": 0, "CLASSIFICATION_TYPE": "U", "NORAD_CAT_ID": 40011, "ELEMENT_SET_NO": 999, "REV_AT_EPOCH": 62220, "BSTAR": 0.00013217984, "MEAN_MOTION_DOT": 1.152e-05, "MEAN_MOTION_DDOT": 0}, "tle": {"line1": "1 40011U 14033B   25354.27750591  .00001152  00000+0  13218-3 0  9998", "line2": "2 40011  97.5405 182.7889 0023770 175.3417 184.8026 14.87505295622205"}}, "geometry": {"type": "Point", "coordinates": [-173.8777370001131, -21.674189237295305]}}, {"type": "Feature", "properties": {"norad_id": 40013, "name": "DEIMOS-2", "group": "resource", "lat": -67.88782766508359, "lon": -110.64710016766915, "alt_km": 596.8416508406535, "timestamp": "2025-12-20T14:38:01.615577+00:00", "meta": {"OBJECT_NAME": "DEIMOS-2", "OBJECT_ID": "2014-033D", "EPOCH": "2025-12-20T05:17:32.311968", "MEAN_MOTION": 14.93006198, "ECCENTRICITY": 0.00014562, "INCLINATION": 97.6068, "RA_OF_ASC_NODE": 229.7736, "ARG_OF_PERICENTER": 104.5935, "MEAN_ANOMALY": 255.5447, "EPHEMERIS_TYPE": 0, "CLASSIFICATION_TYPE": "U", "NORAD_CAT_ID": 40013, "ELEMENT_SET_NO": 999, "REV_AT_EPOCH": 61101, "BSTAR": 0.00023399948, "MEAN_MOTION_DOT": 2.378e-05, "MEAN_MOTION_DDOT": 0}, "tle": {"line1": "1 40013U 14033D   25354.22051287  .00002378  00000+0  23400-3 0  9996", "line2": "2 40013  97.6068 229.7736 0001456 104.5935 255.5447 14.93006198611017"}}, "geometry": {"type": "Point", "coordinates": [-110.64710016766915, -67.88782766508359]}}, {"type": "Feature", "properties": {"norad_id": 40015, "name": "HODOYOSHI-3", "group": "resource", "lat": -7.7626715822675365, "lon": -20.943150182338197, "alt_km": 599.2996702551454, "timestamp": "2025-12-20T14:38:01.615588+00:00", "meta": {"OBJECT_NAME": "HODOYOSHI-3", "OBJECT_ID": "2014-033F", "EPOCH": "2025-12-20T00:51:00.823680", "MEAN_MOTION": 14.84829339, "ECCENTRICITY": 0.00322086, "INCLINATION": 97.6204, "RA_OF_ASC_NODE": 159.5534, "ARG_OF_PERICENTER": 223.0921, "MEAN_ANOMALY": 136.7773, "EPHEMERIS_TYPE": 0, "CLASSIFICATION_TYPE": "U", "NORAD_CAT_ID": 40015, "ELEMENT_SET_NO": 999, "REV_AT_EPOCH": 62103, "BSTAR": 0.00013893431, "MEAN_MOTION_DOT": 1.138e-05, "MEAN_MOTION_DDOT": 0}, "tle": {"line1": "1 40015U 14033F   25354.03542620  .00001138  00000+0  13893-3 0  9991", "line2": "2 40015  97.6204 159.5534 0032208 223.0921 136.7773 14.84829339621033"}}, "geometry": {"type": "Point", "coordinates": [-20.943150182338197, -7.7626715822675365]}}, {"type": "Feature", "properties": {"norad_id": 40053, "name": "SPOT 7", "group": "resource", "lat": -49.75479065432434, "lon": 66.17896454850431, "alt_km": 698.4566261752716, "timestamp": "2025-12-20T14:38:01.615598+00:00", "meta": {"OBJECT_NAME": "SPOT 7", "OBJECT_ID": "2014-034A", "EPOCH": "2025-12-20T06:38:39.945408", "MEAN_MOTION": 14.60742681, "ECCENTRICITY": 0.00015612, "INCLINATION": 98.0903, "RA_OF_ASC_NODE": 56.1792, "ARG_OF_PERICENTER": 86.427, "MEAN_ANOMALY": 273.7109, "EPHEMERIS_TYPE": 0, "CLASSIFICATION_TYPE": "U", "NORAD_CAT_ID": 40053, "ELEMENT_SET_NO": 999, "REV_AT_EPOCH": 61101, "BSTAR": 8.2446603e-05, "MEAN_MOTION_DOT": 3.57e-06, "MEAN_MOTION_DDOT": 0}, "tle": {"line1": "1 40053U 14034A   25354.27685122  .00000357  00000+0  82447-4 0  9999", "line2": "2 40053  98.0903  56.1792 0001561  86.4270 273.7109 14.60742681611010"}}, "geometry": {"type": "Point", "coordinates": [66.17896454850431, -49.75479065432434]}}, {"type": "Feature", "properties": {"norad_id": 40072, "name": "SKYSAT-B", "group": "resource", "lat": -78.78219852084871, "lon": -13.395808659086981, "alt_km": 617.5135471946269, "timestamp": "2025-12-20T14:38:01.615608+00:00", "meta": {"OBJECT_NAME": "SKYSAT-B", "OBJECT_ID": "2014-037D", "EPOCH": "2025-12-19T19:37:46.870176", "MEAN_MOTION": 14.87350414, "ECCENTRICITY": 0.0006578, "INCLINATION": 98.3621, "RA_OF_ASC_NODE": 297.898, "ARG_OF_PERICENTER": 130.2703, "MEAN_ANOMALY": 229.9088, "EPHEMERIS_TYPE": 0, "CLASSIFICATION_TYPE": "U", "NORAD_CAT_ID": 40072, "ELEMENT_SET_NO": 999, "REV_AT_EPOCH": 61929, "BSTAR": 0.00013824731, "MEAN_MOTION_DOT": 1.188e-05, "MEAN_MOTION_DDOT": 0}, "tle": {"line1": "1 40072U 14037D   25353.81790359  .00001188  00000+0  13825-3 0  9997", "line2": "2 40072  98.3621 297.8980 0006578 130.2703 229.9088 14.87350414619291"}}, "geometry": {"type": "Point", "coordinates": [-13.395808659086981, -78.78219852084871]}}, {"type": "Feature", "properties": {"norad_id": 40115, "name": "WORLDVIEW-3 (WV-3)", "group": "resource", "lat": 70.40022297431392, "lon": -90.3267948957136, "alt_km": 606.7277298272911, "timestamp": "2025-12-20T14:38:01.615618+00:00", "meta": {"OBJECT_NAME": "WORLDVIEW-3 (WV-3)", "OBJECT_ID": "2014-048A", "EPOCH": "2025-12-20T04:26:38.864256", "MEAN_MOTION": 14.8466331, "ECCENTRICITY": 0.00017814, "INCLINATION": 97.8771, "RA_OF_ASC_NODE": 66.3732, "ARG_OF_PERICENTER": 137.0431, "MEAN_ANOMALY": 223.0922, "EPHEMERIS_TYPE": 0, "CLASSIFICATION_TYPE": "U", "NORAD_CAT_ID": 40115, "ELEMENT_SET_NO": 999, "REV_AT_EPOCH": 61534, "BSTAR": 9.422519e-05, "MEAN_MOTION_DOT": 7.44e-06, "MEAN_MOTION_DDOT": 0}, "tle": {"line1": "1 40115U 14048A   25354.18517204  .00000744  00000+0  94225-4 0  9995", "line2": "2 40115  97.8771  66.3732 0001781 137.0431 223.0922 14.84663310615340"}}, "geometry": {"type": "Point", "coordinates": [-90.3267948957136, 70.40022297431392]}}]}